APRIZESAT 2             
1 28366U 04025A   26177.26057082  .00000204  00000+0  76562-4 0  9994
2 28366  98.1020 342.7277 0104704 222.1655 137.1445 14.38039397152941
SAUDICOMSAT 1           
1 28369U 04025D   26177.29694778  .00000365  00000+0  94703-4 0  9994
2 28369  98.5770 187.6741 0032053 357.9971   2.1092 14.55480407165457
SAUDICOMSAT 2           
1 28370U 04025E   26177.02695338  .00000218  00000+0  68055-4 0  9998
2 28370  98.6639 189.5233 0054458 232.1903 127.4353 14.49985558161382
APRIZESAT 1             
1 28372U 04025G   26176.97879555  .00000258  00000+0  75516-4 0  9992
2 28372  98.6302 187.9437 0045516 127.5972 232.9368 14.51781562163187
NANOSAT-1               
1 28493U 04049B   26177.29519462  .00000988  00000+0  13735-3 0  9990
2 28493  98.2285 314.1793 0002728 259.6379 100.4524 14.80176097156797
SAUDICOMSAT 7           
1 31119U 07012C   26177.18982165  .00000484  00000+0  95708-4 0  9996
2 31119  98.3781 151.5057 0055927 166.9473 193.3192 14.66118023 23758
SAUDICOMSAT 6           
1 31121U 07012E   26176.84716804  .00000492  00000+0  10382-3 0  9999
2 31121  98.4101 144.5248 0070588 300.4507  58.9733 14.62567363 21458
SAUDICOMSAT 5           
1 31124U 07012H   26176.87807923  .00000661  00000+0  12198-3 0  9993
2 31124  98.3493 151.9329 0048721  98.0554 262.6182 14.68167001 24874
SAUDICOMSAT 3           
1 31125U 07012J   26176.89157851  .00000829  00000+0  14324-3 0  9993
2 31125  98.3146 152.4943 0039729  26.3675 333.9542 14.70719574 26105
SAUDICOMSAT 4           
1 31127U 07012L   26177.17323771  .00000413  00000+0  85759-4 0  9993
2 31127  98.3987 149.9271 0062334 229.5853 129.9901 14.64519882 22604
APRIZESAT 4             
1 35684U 09041D   26177.15799374  .00000603  00000+0  78572-4 0  9999
2 35684  98.1410 252.6572 0041971 293.2143  66.4653 14.83889998912690
APRIZESAT 3             
1 35686U 09041F   26176.99324131  .00001086  00000+0  98317-4 0  9992
2 35686  98.2075 330.6394 0062573  39.0341 321.5369 14.96267873917696
S-NET D                 
1 43186U 18014G   26177.23642252  .00005438  00000+0  28038-3 0  9998
2 43186  97.5361  81.9703 0007959   0.9042 359.2204 15.16751845460130
S-NET B                 
1 43187U 18014H   26176.98415783  .00005231  00000+0  27009-3 0  9995
2 43187  97.5364  81.7067 0008424 356.0360   4.0805 15.16719444460097
S-NET A                 
1 43188U 18014J   26176.97136337  .00005346  00000+0  27568-3 0  9997
2 43188  97.5376  81.9043 0008359 357.0429   3.0753 15.16756821460092
S-NET C                 
1 43189U 18014K   26177.25197352  .00005263  00000+0  27171-3 0  9992
2 43189  97.5390  82.2596 0009414 346.6667  13.4316 15.16714747458680
SALSAT                  
1 46495U 20068K   26177.23713265  .00008443  00000+0  29407-3 0  9999
2 46495  97.8850 180.8533 0007806 269.3703  90.6642 15.29920409316745
OOV-CUBE (TUBSAT-30)    
1 60240U 24128F   26177.23776850  .00001664  00000+0  13704-3 0  9994
2 60240  61.9924 194.0128 0043504 135.7884 224.6697 15.02803677107476
LPNTSAT-001 (IOD-1)     
1 68408U 26065A   26176.90655221  .00002773  00000+0  13703-3 0  9992
2 68408  97.4014  57.2316 0015731 340.0376  20.0241 15.18578906 13583
